{"type": "FeatureCollection", "features": [ {"type": "Feature", "properties": {"norad_id": 43058, "name": "GSAT0218 (GALILEO 22)", "group": "galileo", "lat": -47.919590187026444, "lon": 97.07497079949157, "alt_km": 23223.60017300386, "timestamp": "2025-12-14T18:52:55.766408+00:00", "meta": {"OBJECT_NAME": "GSAT0218 (GALILEO 22)", "OBJECT_ID": "2017-079D", "EPOCH": "2025-12-12T15:04:31.769472", "MEAN_MOTION": 1.70474063, "ECCENTRICITY": 0.00028411, "INCLINATION": 55.1287, "RA_OF_ASC_NODE": 226.6365, "ARG_OF_PERICENTER": 306.3289, "MEAN_ANOMALY": 53.7237, "EPHEMERIS_TYPE": 0, "CLASSIFICATION_TYPE": "U", "NORAD_CAT_ID": 43058, "ELEMENT_SET_NO": 999, "REV_AT_EPOCH": 4983, "BSTAR": 0, "MEAN_MOTION_DOT": 1.7e-07, "MEAN_MOTION_DDOT": 0}, "tle": {"line1": "1 43058U 17079D   25346.62814548  .00000017  00000+0  00000+0 0  9998", "line2": "2 43058  55.1287 226.6365 0002841 306.3289  53.7237  1.70474063 49839"}}, "geometry": {"type": "Point", "coordinates": [97.07497079949157, -47.919590187026444]}}, {"type": "Feature", "properties": {"norad_id": 43564, "name": "GSAT0221 (GALILEO 25)", "group": "galileo", "lat": -43.84294678923197, "lon": -51.46376829782593, "alt_km": 23208.517059797105, "timestamp": "2025-12-14T18:52:55.766419+00:00", "meta": {"OBJECT_NAME": "GSAT0221 (GALILEO 25)", "OBJECT_ID": "2018-060A", "EPOCH": "2025-12-13T16:53:40.160256", "MEAN_MOTION": 1.70475883, "ECCENTRICITY": 0.00067122, "INCLINATION": 57.2276, "RA_OF_ASC_NODE": 346.7914, "ARG_OF_PERICENTER": 283.6018, "MEAN_ANOMALY": 76.3423, "EPHEMERIS_TYPE": 0, "CLASSIFICATION_TYPE": "U", "NORAD_CAT_ID": 43564, "ELEMENT_SET_NO": 999, "REV_AT_EPOCH": 4600, "BSTAR": 0, "MEAN_MOTION_DOT": -8.5e-07, "MEAN_MOTION_DDOT": 0}, "tle": {"line1": "1 43564U 18060A   25347.70393704 -.00000085  00000+0  00000+0 0  9993", "line2": "2 43564  57.2276 346.7914 0006712 283.6018  76.3423  1.70475883 46009"}}, "geometry": {"type": "Point", "coordinates": [-51.46376829782593, -43.84294678923197]}}, {"type": "Feature", "properties": {"norad_id": 43565, "name": "GSAT0222 (GALILEO 26)", "group": "galileo", "lat": 8.524097173049274, "lon": 161.22419878366244, "alt_km": 23222.371339162222, "timestamp": "2025-12-14T18:52:55.766431+00:00", "meta": {"OBJECT_NAME": "GSAT0222 (GALILEO 26)", "OBJECT_ID": "2018-060B", "EPOCH": "2025-12-11T13:50:46.646592", "MEAN_MOTION": 1.70475594, "ECCENTRICITY": 0.00061469, "INCLINATION": 57.2316, "RA_OF_ASC_NODE": 346.8519, "ARG_OF_PERICENTER": 263.5274, "MEAN_ANOMALY": 96.42, "EPHEMERIS_TYPE": 0, "CLASSIFICATION_TYPE": "U", "NORAD_CAT_ID": 43565, "ELEMENT_SET_NO": 999, "REV_AT_EPOCH": 4601, "BSTAR": 0, "MEAN_MOTION_DOT": -8.7e-07, "MEAN_MOTION_DDOT": 0}, "tle": {"line1": "1 43565U 18060B   25345.57692878 -.00000087  00000+0  00000+0 0  9993", "line2": "2 43565  57.2316 346.8519 0006146 263.5274  96.4200  1.70475594 46015"}}, "geometry": {"type": "Point", "coordinates": [161.22419878366244, 8.524097173049274]}}, {"type": "Feature", "properties": {"norad_id": 43566, "name": "GSAT0219 (GALILEO 23)", "group": "galileo", "lat": 28.214218957518426, "lon": 6.986095962767167, "alt_km": 23223.62166459893, "timestamp": "2025-12-14T18:52:55.766442+00:00", "meta": {"OBJECT_NAME": "GSAT0219 (GALILEO 23)", "OBJECT_ID": "2018-060C", "EPOCH": "2025-12-12T23:18:35.949024", "MEAN_MOTION": 1.70475808, "ECCENTRICITY": 0.00058128, "INCLINATION": 57.2304, "RA_OF_ASC_NODE": 346.8158, "ARG_OF_PERICENTER": 287.2893, "MEAN_ANOMALY": 72.6656, "EPHEMERIS_TYPE": 0, "CLASSIFICATION_TYPE": "U", "NORAD_CAT_ID": 43566, "ELEMENT_SET_NO": 999, "REV_AT_EPOCH": 4601, "BSTAR": 0, "MEAN_MOTION_DOT": -8.6e-07, "MEAN_MOTION_DDOT": 0}, "tle": {"line1": "1 43566U 18060C   25346.97124941 -.00000086  00000+0  00000+0 0  9999", "line2": "2 43566  57.2304 346.8158 0005812 287.2893  72.6656  1.70475808 46010"}}, "geometry": {"type": "Point", "coordinates": [6.986095962767167, 28.214218957518426]}}, {"type": "Feature", "properties": {"norad_id": 43567, "name": "GSAT0220 (GALILEO 24)", "group": "galileo", "lat": -55.481967557876516, "lon": -123.72912254279646, "alt_km": 23211.548359088796, "timestamp": "2025-12-14T18:52:55.766453+00:00", "meta": {"OBJECT_NAME": "GSAT0220 (GALILEO 24)", "OBJECT_ID": "2018-060D", "EPOCH": "2025-12-10T20:18:00.212256", "MEAN_MOTION": 1.70475727, "ECCENTRICITY": 0.0006125, "INCLINATION": 57.2305, "RA_OF_ASC_NODE": 346.8727, "ARG_OF_PERICENTER": 283.9956, "MEAN_ANOMALY": 75.9532, "EPHEMERIS_TYPE": 0, "CLASSIFICATION_TYPE": "U", "NORAD_CAT_ID": 43567, "ELEMENT_SET_NO": 999, "REV_AT_EPOCH": 4596, "BSTAR": 0, "MEAN_MOTION_DOT": -8.7e-07, "MEAN_MOTION_DDOT": 0}, "tle": {"line1": "1 43567U 18060D   25344.84583579 -.00000087  00000+0  00000+0 0  9991", "line2": "2 43567  57.2305 346.8727 0006125 283.9956  75.9532  1.70475727 45967"}}, "geometry": {"type": "Point", "coordinates": [-123.72912254279646, -55.481967557876516]}}, {"type": "Feature", "properties": {"norad_id": 49809, "name": "GSAT0223 (GALILEO 27)", "group": "galileo", "lat": -8.927444113569566, "lon": -19.154212938830838, "alt_km": 23225.260046700674, "timestamp": "2025-12-14T18:52:55.766464+00:00", "meta": {"OBJECT_NAME": "GSAT0223 (GALILEO 27)", "OBJECT_ID": "2021-116A", "EPOCH": "2025-12-10T02:39:25.687008", "MEAN_MOTION": 1.70475768, "ECCENTRICITY": 0.000463, "INCLINATION": 57.2198, "RA_OF_ASC_NODE": 346.7831, "ARG_OF_PERICENTER": 251.6037, "MEAN_ANOMALY": 107.9349, "EPHEMERIS_TYPE": 0, "CLASSIFICATION_TYPE": "U", "NORAD_CAT_ID": 49809, "ELEMENT_SET_NO": 999, "REV_AT_EPOCH": 2495, "BSTAR": 0, "MEAN_MOTION_DOT": -8.7e-07, "MEAN_MOTION_DDOT": 0}, "tle": {"line1": "1 49809U 21116A   25344.11071397 -.00000087  00000+0  00000+0 0  9992", "line2": "2 49809  57.2198 346.7831 0004630 251.6037 107.9349  1.70475768 24951"}}, "geometry": {"type": "Point", "coordinates": [-19.154212938830838, -8.927444113569566]}}, {"type": "Feature", "properties": {"norad_id": 49810, "name": "GSAT0224 (GALILEO 28)", "group": "galileo", "lat": 55.33138087399562, "lon": 97.93818204873646, "alt_km": 23226.062954963767, "timestamp": "2025-12-14T18:52:55.766475+00:00", "meta": {"OBJECT_NAME": "GSAT0224 (GALILEO 28)", "OBJECT_ID": "2021-116B", "EPOCH": "2025-12-13T17:44:11.129280", "MEAN_MOTION": 1.70476102, "ECCENTRICITY": 0.00038364, "INCLINATION": 57.22, "RA_OF_ASC_NODE": 346.684, "ARG_OF_PERICENTER": 258.6964, "MEAN_ANOMALY": 280.205, "EPHEMERIS_TYPE": 0, "CLASSIFICATION_TYPE": "U", "NORAD_CAT_ID": 49810, "ELEMENT_SET_NO": 999, "REV_AT_EPOCH": 2504, "BSTAR": 0, "MEAN_MOTION_DOT": -8.5e-07, "MEAN_MOTION_DDOT": 0}, "tle": {"line1": "1 49810U 21116B   25347.73901770 -.00000085  00000+0  00000+0 0  9990", "line2": "2 49810  57.2200 346.6840 0003836 258.6964 280.2050  1.70476102 25047"}}, "geometry": {"type": "Point", "coordinates": [97.93818204873646, 55.33138087399562]}}, {"type": "Feature", "properties": {"norad_id": 59598, "name": "GSAT0225 (GALILEO 29)", "group": "galileo", "lat": 54.76444215183532, "lon": -156.05881550699968, "alt_km": 23214.891979551656, "timestamp": "2025-12-14T18:52:55.766487+00:00", "meta": {"OBJECT_NAME": "GSAT0225 (GALILEO 29)", "OBJECT_ID": "2024-079A", "EPOCH": "2025-12-10T12:47:07.958400", "MEAN_MOTION": 1.70474727, "ECCENTRICITY": 0.00020453, "INCLINATION": 55.0006, "RA_OF_ASC_NODE": 106.3566, "ARG_OF_PERICENTER": 176.2356, "MEAN_ANOMALY": 187.363, "EPHEMERIS_TYPE": 0, "CLASSIFICATION_TYPE": "U", "NORAD_CAT_ID": 59598, "ELEMENT_SET_NO": 999, "REV_AT_EPOCH": 1010, "BSTAR": 0, "MEAN_MOTION_DOT": 1e-07, "MEAN_MOTION_DDOT": 0}, "tle": {"line1": "1 59598U 24079A   25344.53273100  .00000010  00000+0  00000+0 0  9996", "line2": "2 59598  55.0006 106.3566 0002045 176.2356 187.3630  1.70474727 10101"}}, "geometry": {"type": "Point", "coordinates": [-156.05881550699968, 54.76444215183532]}}, {"type": "Feature", "properties": {"norad_id": 59600, "name": "GSAT0227 (GALILEO 30)", "group": "galileo", "lat": -14.762878390632146, "lon": 95.59242480641592, "alt_km": 23230.727225713574, "timestamp": "2025-12-14T18:52:55.766498+00:00", "meta": {"OBJECT_NAME": "GSAT0227 (GALILEO 30)", "OBJECT_ID": "2024-079C", "EPOCH": "2025-12-08T22:48:42.234912", "MEAN_MOTION": 1.70474719, "ECCENTRICITY": 0.0003262, "INCLINATION": 54.9946, "RA_OF_ASC_NODE": 106.4003, "ARG_OF_PERICENTER": 114.182, "MEAN_ANOMALY": 245.816, "EPHEMERIS_TYPE": 0, "CLASSIFICATION_TYPE": "U", "NORAD_CAT_ID": 59600, "ELEMENT_SET_NO": 999, "REV_AT_EPOCH": 1012, "BSTAR": 0, "MEAN_MOTION_DOT": 9e-08, "MEAN_MOTION_DDOT": 0}, "tle": {"line1": "1 59600U 24079C   25342.95048883  .00000009  00000+0  00000+0 0  9990", "line2": "2 59600  54.9946 106.4003 0003262 114.1820 245.8160  1.70474719 10123"}}, "geometry": {"type": "Point", "coordinates": [95.59242480641592, -14.762878390632146]}}, {"type": "Feature", "properties": {"norad_id": 61182, "name": "GSAT0232 (GALILEO 32)", "group": "galileo", "lat": 3.004127808352275, "lon": 44.29538094084109, "alt_km": 23217.415480669955, "timestamp": "2025-12-14T18:52:55.766510+00:00", "meta": {"OBJECT_NAME": "GSAT0232 (GALILEO 32)", "OBJECT_ID": "2024-167A", "EPOCH": "2025-12-12T10:51:18.741600", "MEAN_MOTION": 1.70473504, "ECCENTRICITY": 0.00019431, "INCLINATION": 55.2408, "RA_OF_ASC_NODE": 226.4386, "ARG_OF_PERICENTER": 211.6313, "MEAN_ANOMALY": 332.0573, "EPHEMERIS_TYPE": 0, "CLASSIFICATION_TYPE": "U", "NORAD_CAT_ID": 61182, "ELEMENT_SET_NO": 999, "REV_AT_EPOCH": 769, "BSTAR": 0, "MEAN_MOTION_DOT": 1.6e-07, "MEAN_MOTION_DDOT": 0}, "tle": {"line1": "1 61182U 24167A   25346.45230025  .00000016  00000+0  00000+0 0  9994", "line2": "2 61182  55.2408 226.4386 0001943 211.6313 332.0573  1.70473504  7695"}}, "geometry": {"type": "Point", "coordinates": [44.29538094084109, 3.004127808352275]}}]}